[{"OBJECT_NAME":"STARLINK-5295","OBJECT_ID":"2023-010AP","EPOCH":"2026-03-09T22:06:42.162912","MEAN_MOTION":14.98329749,"ECCENTRICITY":0.00027982,"INCLINATION":70.0015,"RA_OF_ASC_NODE":4.0078,"ARG_OF_PERICENTER":271.93,"MEAN_ANOMALY":88.1538,"EPHEMERIS_TYPE":0,"CLASSIFICATION_TYPE":"U","NORAD_CAT_ID":55306,"ELEMENT_SET_NO":999,"REV_AT_EPOCH":17380,"BSTAR":-1.523871e-5,"MEAN_MOTION_DOT":-2.75e-6,"MEAN_MOTION_DDOT":0},{"OBJECT_NAME":"CZ-2C DEB","OBJECT_ID":"2026-009C","EPOCH":"2026-03-09T19:20:16.840608","MEAN_MOTION":15.15876918,"ECCENTRICITY":0.01015815,"INCLINATION":97.2202,"RA_OF_ASC_NODE":140.8028,"ARG_OF_PERICENTER":36.3959,"MEAN_ANOMALY":324.4125,"EPHEMERIS_TYPE":0,"CLASSIFICATION_TYPE":"U","NORAD_CAT_ID":67586,"ELEMENT_SET_NO":999,"REV_AT_EPOCH":810,"BSTAR":0.0025681251,"MEAN_MOTION_DOT":0.0005635,"MEAN_MOTION_DDOT":0}]
